K12F62N 17.80  0.15 K2555  49.02546  142.47036  147.97406   10.00579  0.6161569  0.16703469   3.2653640  0 MPO893304  1168   3 2012-2024 0.62 M-v 3Ek MPCLINUX   1804          2012 FN62          20241124
